{
  "type": "FeatureCollection",
  "features": [
    {
      "type": "Feature",
      "properties": {
        "norad_id": 58701,
        "name": "TIANMU-1 16",
        "group": "weather",
        "lat": 7.770331624359782,
        "lon": 168.4360903010572,
        "alt_km": 493.8415553081304,
        "timestamp": "2025-12-14T14:39:29.019516+00:00",
        "meta_object_name": "TIANMU-1 16",
        "meta_object_id": "2024-004B",
        "meta_epoch": "2025-12-14T00:26:44.752128",
        "meta_mean_motion": 15.24456317,
        "meta_eccentricity": 0.00044166,
        "meta_inclination": 97.4568,
        "meta_ra_of_asc_node": 168.8709,
        "meta_arg_of_pericenter": 290.9237,
        "meta_mean_anomaly": 69.1528,
        "meta_ephemeris_type": 0,
        "meta_classification_type": "U",
        "meta_norad_cat_id": 58701,
        "meta_element_set_no": 999,
        "meta_rev_at_epoch": 10754,
        "meta_bstar": 0.00031812527,
        "meta_mean_motion_dot": 7.742e-05,
        "meta_mean_motion_ddot": 0,
        "tle_line1": "1 58701U 24004B   25348.01857352  .00007742  00000+0  31813-3 0  9992",
        "tle_line2": "2 58701  97.4568 168.8709 0004416 290.9237  69.1528 15.24456317107544"
      },
      "geometry": {
        "type": "Point",
        "coordinates": [
          168.4360903010572,
          7.770331624359782
        ]
      }
    },
    {
      "type": "Feature",
      "properties": {
        "norad_id": 58702,
        "name": "TIANMU-1 17",
        "group": "weather",
        "lat": 82.05828400591929,
        "lon": 59.809896484282405,
        "alt_km": 487.16033811785474,
        "timestamp": "2025-12-14T14:39:29.019527+00:00",
        "meta_object_name": "TIANMU-1 17",
        "meta_object_id": "2024-004C",
        "meta_epoch": "2025-12-14T00:04:30.696384",
        "meta_mean_motion": 15.2449987,
        "meta_eccentricity": 0.00036345,
        "meta_inclination": 97.4603,
        "meta_ra_of_asc_node": 169.2663,
        "meta_arg_of_pericenter": 294.2463,
        "meta_mean_anomaly": 65.8395,
        "meta_ephemeris_type": 0,
        "meta_classification_type": "U",
        "meta_norad_cat_id": 58702,
        "meta_element_set_no": 999,
        "meta_rev_at_epoch": 10753,
        "meta_bstar": 0.00033317972,
        "meta_mean_motion_dot": 8.122e-05,
        "meta_mean_motion_ddot": 0,
        "tle_line1": "1 58702U 24004C   25348.00313306  .00008122  00000+0  33318-3 0  9993",
        "tle_line2": "2 58702  97.4603 169.2663 0003634 294.2463  65.8395 15.24499870107533"
      },
      "geometry": {
        "type": "Point",
        "coordinates": [
          59.809896484282405,
          82.05828400591929
        ]
      }
    },
    {
      "type": "Feature",
      "properties": {
        "norad_id": 58703,
        "name": "TIANMU-1 18",
        "group": "weather",
        "lat": -4.183701544860994,
        "lon": -10.48245758430925,
        "alt_km": 496.562936386199,
        "timestamp": "2025-12-14T14:39:29.019537+00:00",
        "meta_object_name": "TIANMU-1 18",
        "meta_object_id": "2024-004D",
        "meta_epoch": "2025-12-13T23:40:30.062784",
        "meta_mean_motion": 15.24486876,
        "meta_eccentricity": 0.0002984,
        "meta_inclination": 97.462,
        "meta_ra_of_asc_node": 169.4452,
        "meta_arg_of_pericenter": 294.6118,
        "meta_mean_anomaly": 65.4808,
        "meta_ephemeris_type": 0,
        "meta_classification_type": "U",
        "meta_norad_cat_id": 58703,
        "meta_element_set_no": 999,
        "meta_rev_at_epoch": 10753,
        "meta_bstar": 0.00034122723,
        "meta_mean_motion_dot": 8.316e-05,
        "meta_mean_motion_ddot": 0,
        "tle_line1": "1 58703U 24004D   25347.98645906  .00008316  00000+0  34123-3 0  9994",
        "tle_line2": "2 58703  97.4620 169.4452 0002984 294.6118  65.4808 15.24486876107536"
      },
      "geometry": {
        "type": "Point",
        "coordinates": [
          -10.48245758430925,
          -4.183701544860994
        ]
      }
    },
    {
      "type": "Feature",
      "properties": {
        "norad_id": 58990,
        "name": "INSAT-3DS",
        "group": "weather",
        "lat": -0.01644120159765673,
        "lon": 25.486903384918598,
        "alt_km": 35788.55754152601,
        "timestamp": "2025-12-14T14:39:29.019549+00:00",
        "meta_object_name": "INSAT-3DS",
        "meta_object_id": "2024-033A",
        "meta_epoch": "2025-12-13T23:19:38.640864",
        "meta_mean_motion": 1.00272571,
        "meta_eccentricity": 0.00012439,
        "meta_inclination": 0.0429,
        "meta_ra_of_asc_node": 132.5615,
        "meta_arg_of_pericenter": 132.5364,
        "meta_mean_anomaly": 249.795,
        "meta_ephemeris_type": 0,
        "meta_classification_type": "U",
        "meta_norad_cat_id": 58990,
        "meta_element_set_no": 999,
        "meta_rev_at_epoch": 4521,
        "meta_bstar": 0,
        "meta_mean_motion_dot": -1.39e-06,
        "meta_mean_motion_ddot": 0,
        "tle_line1": "1 58990U 24033A   25347.97197501 -.00000139  00000+0  00000+0 0  9995",
        "tle_line2": "2 58990   0.0429 132.5615 0001243 132.5364 249.7950  1.00272571 45218"
      },
      "geometry": {
        "type": "Point",
        "coordinates": [
          25.486903384918598,
          -0.01644120159765673
        ]
      }
    },
    {
      "type": "Feature",
      "properties": {
        "norad_id": 59051,
        "name": "METEOR-M2 4",
        "group": "weather",
        "lat": 31.99748474523647,
        "lon": -59.98470542784562,
        "alt_km": 811.4533659854305,
        "timestamp": "2025-12-14T14:39:29.019560+00:00",
        "meta_object_name": "METEOR-M2 4",
        "meta_object_id": "2024-039A",
        "meta_epoch": "2025-12-13T23:18:43.915104",
        "meta_mean_motion": 14.22401537,
        "meta_eccentricity": 0.00069751,
        "meta_inclination": 98.6767,
        "meta_ra_of_asc_node": 304.8609,
        "meta_arg_of_pericenter": 355.0509,
        "meta_mean_anomaly": 5.0599,
        "meta_ephemeris_type": 0,
        "meta_classification_type": "U",
        "meta_norad_cat_id": 59051,
        "meta_element_set_no": 999,
        "meta_rev_at_epoch": 9293,
        "meta_bstar": 5.0719395e-05,
        "meta_mean_motion_dot": 6.9e-07,
        "meta_mean_motion_ddot": 0,
        "tle_line1": "1 59051U 24039A   25347.97134161  .00000069  00000+0  50719-4 0  9991",
        "tle_line2": "2 59051  98.6767 304.8609 0006975 355.0509   5.0599 14.22401537 92939"
      },
      "geometry": {
        "type": "Point",
        "coordinates": [
          -59.98470542784562,
          31.99748474523647
        ]
      }
    },
    {
      "type": "Feature",
      "properties": {
        "norad_id": 60133,
        "name": "GOES 19",
        "group": "weather",
        "lat": 0.005882824917287394,
        "lon": -131.82434133164162,
        "alt_km": 35786.31804615658,
        "timestamp": "2025-12-14T14:39:29.019572+00:00",
        "meta_object_name": "GOES 19",
        "meta_object_id": "2024-119A",
        "meta_epoch": "2025-12-13T21:39:05.933664",
        "meta_mean_motion": 1.00270268,
        "meta_eccentricity": 0.00012463,
        "meta_inclination": 0.0147,
        "meta_ra_of_asc_node": 155.1823,
        "meta_arg_of_pericenter": 160.4172,
        "meta_mean_anomaly": 16.8095,
        "meta_ephemeris_type": 0,
        "meta_classification_type": "U",
        "meta_norad_cat_id": 60133,
        "meta_element_set_no": 999,
        "meta_rev_at_epoch": 510,
        "meta_bstar": 0,
        "meta_mean_motion_dot": -2.32e-06,
        "meta_mean_motion_ddot": 0,
        "tle_line1": "1 60133U 24119A   25347.90215201 -.00000232  00000+0  00000+0 0  9997",
        "tle_line2": "2 60133   0.0147 155.1823 0001246 160.4172  16.8095  1.00270268  5107"
      },
      "geometry": {
        "type": "Point",
        "coordinates": [
          -131.82434133164162,
          0.005882824917287394
        ]
      }
    },
    {
      "type": "Feature",
      "properties": {
        "norad_id": 65815,
        "name": "FENGYUN 3H",
        "group": "weather",
        "lat": -72.38343778652656,
        "lon": 79.48335790716568,
        "alt_km": 833.3825923659324,
        "timestamp": "2025-12-14T14:39:29.019585+00:00",
        "meta_object_name": "FENGYUN 3H",
        "meta_object_id": "2025-219A",
        "meta_epoch": "2025-12-13T22:14:30.767136",
        "meta_mean_motion": 14.19905149,
        "meta_eccentricity": 6.349e-05,
        "meta_inclination": 98.6585,
        "meta_ra_of_asc_node": 287.4914,
        "meta_arg_of_pericenter": 95.2309,
        "meta_mean_anomaly": 264.894,
        "meta_ephemeris_type": 0,
        "meta_classification_type": "U",
        "meta_norad_cat_id": 65815,
        "meta_element_set_no": 999,
        "meta_rev_at_epoch": 1109,
        "meta_bstar": 9.0792051e-05,
        "meta_mean_motion_dot": 1.5e-06,
        "meta_mean_motion_ddot": 0,
        "tle_line1": "1 65815U 25219A   25347.92674499  .00000150  00000+0  90792-4 0  9991",
        "tle_line2": "2 65815  98.6585 287.4914 0000634  95.2309 264.8940 14.19905149 11091"
      },
      "geometry": {
        "type": "Point",
        "coordinates": [
          79.48335790716568,
          -72.38343778652656
        ]
      }
    }
  ]
}